0 COSMOS 397 DEB
1 05017U 71015L   13282.17843154  .00003690  00000-0  13697-2 0  6157
2 05017 065.7155 190.4222 0782451 024.9036 120.5073 13.30630673 20153
0 COSMOS 397 DEB
1 05017U 71015L   13283.50169957  .00007088  00000-0  25670-2 0  6178
2 05017 065.7169 187.3432 0782166 024.3280 339.3139 13.30632668 20333
0 COSMOS 397 DEB
1 05017U 71015L   13286.82065396  .00003166  00000-0  11779-2 0  6176
2 05017 065.7161 179.6191 0782725 022.8679 038.2075 13.30657350 20774
0 COSMOS 397 DEB
1 05017U 71015L   13288.85039155  .00003258  00000-0  12099-2 0  6184
2 05017 065.7159 174.8955 0782850 021.9728 041.4475 13.30673672 21046
0 COSMOS 397 DEB
1 05017U 71015L   13290.56642258  .00003612  00000-0  13032-2 0  6204
2 05017 065.7153 170.9024 0782675 021.2167 341.9982 13.30684940 21275
0 COSMOS 397 DEB
1 05017U 71015L   13291.12210252  .00003315  00000-0  12289-2 0  6193
2 05017 065.7150 169.6084 0783024 020.9797 123.9584 13.30686192 21342
0 COSMOS 397 DEB
1 05017U 71015L   13293.43155929  .00002777  00000-0  10340-2 0  6207
2 05017 065.7141 164.2332 0783123 019.9600 027.4061 13.30700173 21658
0 COSMOS 397 DEB
1 05017U 71015L   13295.84123262  .00002750  00000-0  10230-2 0  6219
2 05017 065.7138 158.6233 0783351 018.9028 051.0516 13.30711565 21977
